[
    {
        "Altitude(m)": 703071.2132450092,
        "Argument of Periapsis(deg)": 0.011390121186627068,
        "Eccentricity": 0.0,
        "Inclination(deg)": 45.0,
        "Latitude(deg)": 3.3648498909517452,
        "Longitude(deg)": -174.12638682888874,
        "Mean Anomaly(deg)": 175.16961664748084,
        "RAAN(deg)": 109.98924805854179,
        "Satellite Name": "Constellation 1 494",
        "Satellite Number": 494,
        "Semi-Major Axis(m)": 7083131.272910544,
        "Time(s)": 190
    },
    {
        "Altitude(m)": 703075.2098773051,
        "Argument of Periapsis(deg)": 0.011450069192872472,
        "Eccentricity": 0.0,
        "Inclination(deg)": 45.0,
        "Latitude(deg)": 3.321703698210665,
        "Longitude(deg)": -174.08748801764278,
        "Mean Anomaly(deg)": 175.2303177877307,
        "RAAN(deg)": 109.98919146937624,
        "Satellite Name": "Constellation 1 494",
        "Satellite Number": 494,
        "Semi-Major Axis(m)": 7083131.272910544,
        "Time(s)": 191
    },
    {
        "Altitude(m)": 703079.2273649941,
        "Argument of Periapsis(deg)": 0.01151001719911788,
        "Eccentricity": 0.0,
        "Inclination(deg)": 45.0,
        "Latitude(deg)": 3.2785556488609693,
        "Longitude(deg)": -174.0485929979964,
        "Mean Anomaly(deg)": 175.2910189279806,
        "RAAN(deg)": 109.98913488021066,
        "Satellite Name": "Constellation 1 494",
        "Satellite Number": 494,
        "Semi-Major Axis(m)": 7083131.272910544,
        "Time(s)": 192
    },
    {
        "Altitude(m)": 703083.2657088237,
        "Argument of Periapsis(deg)": 0.011569965205363285,
        "Eccentricity": 0.0,
        "Inclination(deg)": 45.0,
        "Latitude(deg)": 3.235405768128452,
        "Longitude(deg)": -174.00970188940445,
        "Mean Anomaly(deg)": 175.3517200682306,
        "RAAN(deg)": 109.98907829104509,
        "Satellite Name": "Constellation 1 494",
        "Satellite Number": 494,
        "Semi-Major Axis(m)": 7083131.272910544,
        "Time(s)": 193
    },
    {
        "Altitude(m)": 703087.3249094427,
        "Argument of Periapsis(deg)": 0.01162991321160869,
        "Eccentricity": 0.0,
        "Inclination(deg)": 45.0,
        "Latitude(deg)": 3.192254081231102,
        "Longitude(deg)": -173.9708143070397,
        "Mean Anomaly(deg)": 175.41242120848042,
        "RAAN(deg)": 109.98902170187951,
        "Satellite Name": "Constellation 1 494",
        "Satellite Number": 494,
        "Semi-Major Axis(m)": 7083131.272910544,
        "Time(s)": 194
    },
    {
        "Altitude(m)": 703091.4049674093,
        "Argument of Periapsis(deg)": 0.011689861217854095,
        "Eccentricity": 0.0,
        "Inclination(deg)": 45.0,
        "Latitude(deg)": 3.1491006133801496,
        "Longitude(deg)": -173.93193037037383,
        "Mean Anomaly(deg)": 175.47312234873033,
        "RAAN(deg)": 109.98896511271396,
        "Satellite Name": "Constellation 1 494",
        "Satellite Number": 494,
        "Semi-Major Axis(m)": 7083131.272910544,
        "Time(s)": 195
    },
    {
        "Altitude(m)": 703095.5058831843,
        "Argument of Periapsis(deg)": 0.0117498092240995,
        "Eccentricity": 0.0,
        "Inclination(deg)": 45.0,
        "Latitude(deg)": 3.1059453897798166,
        "Longitude(deg)": -173.89305003079028,
        "Mean Anomaly(deg)": 175.5338234889802,
        "RAAN(deg)": 109.98890852354839,
        "Satellite Name": "Constellation 1 494",
        "Satellite Number": 494,
        "Semi-Major Axis(m)": 7083131.272910544,
        "Time(s)": 196
    },
    {
        "Altitude(m)": 703099.6276571443,
        "Argument of Periapsis(deg)": 0.011809757230344905,
        "Eccentricity": 0.0,
        "Inclination(deg)": 45.0,
        "Latitude(deg)": 3.062788435627263,
        "Longitude(deg)": -173.85417323968048,
        "Mean Anomaly(deg)": 175.5945246292301,
        "RAAN(deg)": 109.98885193438281,
        "Satellite Name": "Constellation 1 494",
        "Satellite Number": 494,
        "Semi-Major Axis(m)": 7083131.272910544,
        "Time(s)": 197
    },
    {
        "Altitude(m)": 703103.7702895646,
        "Argument of Periapsis(deg)": 0.011869705236590313,
        "Eccentricity": 0.0,
        "Inclination(deg)": 45.0,
        "Latitude(deg)": 3.019629776112797,
        "Longitude(deg)": -173.81529994844408,
        "Mean Anomaly(deg)": 175.65522576948,
        "RAAN(deg)": 109.98879534521724,
        "Satellite Name": "Constellation 1 494",
        "Satellite Number": 494,
        "Semi-Major Axis(m)": 7083131.272910544,
        "Time(s)": 198
    },
    {
        "Altitude(m)": 703107.9337806314,
        "Argument of Periapsis(deg)": 0.011929653242835719,
        "Eccentricity": 0.0,
        "Inclination(deg)": 45.0,
        "Latitude(deg)": 2.9764694364199538,
        "Longitude(deg)": -173.77643010848877,
        "Mean Anomaly(deg)": 175.71592690972992,
        "RAAN(deg)": 109.98873875605169,
        "Satellite Name": "Constellation 1 494",
        "Satellite Number": 494,
        "Semi-Major Axis(m)": 7083131.272910544,
        "Time(s)": 199
    }
]